GLOBALSTAR M094         
1 39074U 13005C   26094.81164719 -.00000095  00000+0  49431-4 0  9999
2 39074  51.9989  14.2054 0000566  98.3107 261.7824 12.62267213609206
GLOBALSTAR M096         
1 39075U 13005D   26094.58733772 -.00000115  00000+0 -61299-4 0  9995
2 39075  52.0076  63.6290 0000429  98.4503 261.6412 12.62263975608094
GLOBALSTAR M078         
1 39076U 13005E   26094.87715005 -.00000006  00000+0  54405-3 0  9995
2 39076  51.9857 146.8592 0001246 107.6840 252.4162 12.62277023606754
GLOBALSTAR M095         
1 39077U 13005F   26094.58712755 -.00000068  00000+0  19761-3 0  9997
2 39077  52.0066 145.2433 0000789 130.1816 229.9120 12.62267151606575
GLOBALSTAR M087         
1 52888U 22064A   26094.83815457 -.00000097  00000+0  36487-4 0  9995
2 52888  51.9995 285.7628 0000919 113.3131 246.7833 12.62267977181878
