[{"OBJECT_NAME":"GLOBALSTAR M094","OBJECT_ID":"2013-005C","EPOCH":"2026-04-04T19:28:46.317216","MEAN_MOTION":12.62267213,"ECCENTRICITY":5.666e-5,"INCLINATION":51.9989,"RA_OF_ASC_NODE":14.2054,"ARG_OF_PERICENTER":98.3107,"MEAN_ANOMALY":261.7824,"EPHEMERIS_TYPE":0,"CLASSIFICATION_TYPE":"U","NORAD_CAT_ID":39074,"ELEMENT_SET_NO":999,"REV_AT_EPOCH":60920,"BSTAR":4.9430959e-5,"MEAN_MOTION_DOT":-9.5e-7,"MEAN_MOTION_DDOT":0},{"OBJECT_NAME":"GLOBALSTAR M096","OBJECT_ID":"2013-005D","EPOCH":"2026-04-04T14:05:45.979008","MEAN_MOTION":12.62263975,"ECCENTRICITY":4.29e-5,"INCLINATION":52.0076,"RA_OF_ASC_NODE":63.629,"ARG_OF_PERICENTER":98.4503,"MEAN_ANOMALY":261.6412,"EPHEMERIS_TYPE":0,"CLASSIFICATION_TYPE":"U","NORAD_CAT_ID":39075,"ELEMENT_SET_NO":999,"REV_AT_EPOCH":60809,"BSTAR":-6.1299e-5,"MEAN_MOTION_DOT":-1.15e-6,"MEAN_MOTION_DDOT":0},{"OBJECT_NAME":"GLOBALSTAR M078","OBJECT_ID":"2013-005E","EPOCH":"2026-04-04T21:03:05.764320","MEAN_MOTION":12.62277023,"ECCENTRICITY":0.00012463,"INCLINATION":51.9857,"RA_OF_ASC_NODE":146.8592,"ARG_OF_PERICENTER":107.684,"MEAN_ANOMALY":252.4162,"EPHEMERIS_TYPE":0,"CLASSIFICATION_TYPE":"U","NORAD_CAT_ID":39076,"ELEMENT_SET_NO":999,"REV_AT_EPOCH":60675,"BSTAR":0.00054404814,"MEAN_MOTION_DOT":-6.0e-8,"MEAN_MOTION_DDOT":0},{"OBJECT_NAME":"GLOBALSTAR M095","OBJECT_ID":"2013-005F","EPOCH":"2026-04-04T14:05:27.820320","MEAN_MOTION":12.62267151,"ECCENTRICITY":7.89e-5,"INCLINATION":52.0066,"RA_OF_ASC_NODE":145.2433,"ARG_OF_PERICENTER":130.1816,"MEAN_ANOMALY":229.912,"EPHEMERIS_TYPE":0,"CLASSIFICATION_TYPE":"U","NORAD_CAT_ID":39077,"ELEMENT_SET_NO":999,"REV_AT_EPOCH":60657,"BSTAR":0.00019761,"MEAN_MOTION_DOT":-6.8e-7,"MEAN_MOTION_DDOT":0},{"OBJECT_NAME":"GLOBALSTAR M087","OBJECT_ID":"2022-064A","EPOCH":"2026-04-04T20:06:56.554848","MEAN_MOTION":12.62267977,"ECCENTRICITY":9.194e-5,"INCLINATION":51.9995,"RA_OF_ASC_NODE":285.7628,"ARG_OF_PERICENTER":113.3131,"MEAN_ANOMALY":246.7833,"EPHEMERIS_TYPE":0,"CLASSIFICATION_TYPE":"U","NORAD_CAT_ID":52888,"ELEMENT_SET_NO":999,"REV_AT_EPOCH":18187,"BSTAR":3.648715e-5,"MEAN_MOTION_DOT":-9.7e-7,"MEAN_MOTION_DDOT":0}]
